[{"OBJECT_NAME":"EDISON-1","OBJECT_ID":"2025-009B","EPOCH":"2026-03-09T19:16:13.822464","MEAN_MOTION":15.29042904,"ECCENTRICITY":0.00043285,"INCLINATION":97.4042,"RA_OF_ASC_NODE":151.6286,"ARG_OF_PERICENTER":306.4185,"MEAN_ANOMALY":53.6655,"EPHEMERIS_TYPE":0,"CLASSIFICATION_TYPE":"U","NORAD_CAT_ID":62610,"ELEMENT_SET_NO":999,"REV_AT_EPOCH":6375,"BSTAR":0.00052814963,"MEAN_MOTION_DOT":0.00014835,"MEAN_MOTION_DDOT":0},{"OBJECT_NAME":"STARLINK-35590","OBJECT_ID":"2025-236Y","EPOCH":"2026-03-09T11:35:14.734752","MEAN_MOTION":15.3021397,"ECCENTRICITY":0.00012865,"INCLINATION":53.159,"RA_OF_ASC_NODE":104.78,"ARG_OF_PERICENTER":78.7866,"MEAN_ANOMALY":281.3279,"EPHEMERIS_TYPE":0,"CLASSIFICATION_TYPE":"U","NORAD_CAT_ID":66108,"ELEMENT_SET_NO":999,"REV_AT_EPOCH":2285,"BSTAR":0.0016388711,"MEAN_MOTION_DOT":0.00048518,"MEAN_MOTION_DDOT":0}]
